[{"OBJECT_NAME":"GLOBAL-2","OBJECT_ID":"2018-099BG","EPOCH":"2026-03-09T16:47:21.463008","MEAN_MOTION":15.08046936,"ECCENTRICITY":0.00074537,"INCLINATION":97.3697,"RA_OF_ASC_NODE":109.328,"ARG_OF_PERICENTER":127.1924,"MEAN_ANOMALY":232.9986,"EPHEMERIS_TYPE":0,"CLASSIFICATION_TYPE":"U","NORAD_CAT_ID":43812,"ELEMENT_SET_NO":999,"REV_AT_EPOCH":39691,"BSTAR":0.0002614533,"MEAN_MOTION_DOT":3.97e-5,"MEAN_MOTION_DDOT":0},{"OBJECT_NAME":"STARLINK-30428","OBJECT_ID":"2023-146R","EPOCH":"2026-03-09T22:05:47.616864","MEAN_MOTION":15.0346827,"ECCENTRICITY":0.00017205,"INCLINATION":43.0019,"RA_OF_ASC_NODE":311.8639,"ARG_OF_PERICENTER":186.633,"MEAN_ANOMALY":173.449,"EPHEMERIS_TYPE":0,"CLASSIFICATION_TYPE":"U","NORAD_CAT_ID":57906,"ELEMENT_SET_NO":999,"REV_AT_EPOCH":13604,"BSTAR":0.0083257401,"MEAN_MOTION_DOT":0.00117025,"MEAN_MOTION_DDOT":0}]
